[{"OBJECT_NAME":"COSMOS 2549","OBJECT_ID":"2021-008A","EPOCH":"2026-03-06T20:52:58.778400","MEAN_MOTION":13.97028532,"ECCENTRICITY":0.0006353,"INCLINATION":67.1478,"RA_OF_ASC_NODE":233.8777,"ARG_OF_PERICENTER":262.6777,"MEAN_ANOMALY":97.3586,"EPHEMERIS_TYPE":0,"CLASSIFICATION_TYPE":"U","NORAD_CAT_ID":47546,"ELEMENT_SET_NO":999,"REV_AT_EPOCH":25954,"BSTAR":0.00014288628,"MEAN_MOTION_DOT":1.24e-6,"MEAN_MOTION_DDOT":0},{"OBJECT_NAME":"THOR AGENA D R\/B","OBJECT_ID":"1965-016J","EPOCH":"2026-03-09T21:17:47.555808","MEAN_MOTION":13.97648432,"ECCENTRICITY":0.00216789,"INCLINATION":70.0795,"RA_OF_ASC_NODE":317.0866,"ARG_OF_PERICENTER":187.1514,"MEAN_ANOMALY":172.9287,"EPHEMERIS_TYPE":0,"CLASSIFICATION_TYPE":"U","NORAD_CAT_ID":1245,"ELEMENT_SET_NO":999,"REV_AT_EPOCH":10642,"BSTAR":9.3835484e-5,"MEAN_MOTION_DOT":8.0e-7,"MEAN_MOTION_DDOT":0}]
